{"type": "FeatureCollection", "features": [ {"type": "Feature", "properties": {"norad_id": 36533, "name": "COSMOS 2251 DEB", "group": "cosmos-2251-debris", "lat": -66.11120043689142, "lon": -9.159817507812688, "alt_km": 702.7495467237204, "timestamp": "2025-12-04T09:47:37.917077+00:00", "meta": {"OBJECT_NAME": "COSMOS 2251 DEB", "OBJECT_ID": "1993-036BCT", "EPOCH": "2025-12-02T10:15:35.914464", "MEAN_MOTION": 14.49752107, "ECCENTRICITY": 0.00491246, "INCLINATION": 74.0095, "RA_OF_ASC_NODE": 134.2138, "ARG_OF_PERICENTER": 285.2045, "MEAN_ANOMALY": 74.3685, "EPHEMERIS_TYPE": 0, "CLASSIFICATION_TYPE": "U", "NORAD_CAT_ID": 36533, "ELEMENT_SET_NO": 999, "REV_AT_EPOCH": 84335, "BSTAR": 0.00057659582, "MEAN_MOTION_DOT": 2.227e-05, "MEAN_MOTION_DDOT": 0}, "tle": {"line1": "1 36533U 93036BCT 25336.42749901  .00002227  00000+0  57660-3 0  9995", "line2": "2 36533  74.0095 134.2138 0049124 285.2045  74.3685 14.49752107843351"}}, "geometry": {"type": "Point", "coordinates": [-9.159817507812688, -66.11120043689142]}}, {"type": "Feature", "properties": {"norad_id": 36539, "name": "COSMOS 2251 DEB", "group": "cosmos-2251-debris", "lat": 9.80800828779277, "lon": -111.76610823480914, "alt_km": 683.7624673013679, "timestamp": "2025-12-04T09:47:37.917087+00:00", "meta": {"OBJECT_NAME": "COSMOS 2251 DEB", "OBJECT_ID": "1993-036BCZ", "EPOCH": "2025-12-03T16:33:45.779616", "MEAN_MOTION": 14.5919264, "ECCENTRICITY": 0.00277503, "INCLINATION": 74.0244, "RA_OF_ASC_NODE": 72.4412, "ARG_OF_PERICENTER": 218.8351, "MEAN_ANOMALY": 141.0821, "EPHEMERIS_TYPE": 0, "CLASSIFICATION_TYPE": "U", "NORAD_CAT_ID": 36539, "ELEMENT_SET_NO": 999, "REV_AT_EPOCH": 83815, "BSTAR": 0.0012757177, "MEAN_MOTION_DOT": 6.023e-05, "MEAN_MOTION_DDOT": 0}, "tle": {"line1": "1 36539U 93036BCZ 25337.69011319  .00006023  00000+0  12757-2 0  9991", "line2": "2 36539  74.0244  72.4412 0027750 218.8351 141.0821 14.59192640838151"}}, "geometry": {"type": "Point", "coordinates": [-111.76610823480914, 9.80800828779277]}}, {"type": "Feature", "properties": {"norad_id": 36540, "name": "COSMOS 2251 DEB", "group": "cosmos-2251-debris", "lat": 22.27633658288531, "lon": 9.643856913988392, "alt_km": 701.5742985396719, "timestamp": "2025-12-04T09:47:37.917097+00:00", "meta": {"OBJECT_NAME": "COSMOS 2251 DEB", "OBJECT_ID": "1993-036BDA", "EPOCH": "2025-12-03T21:33:06.394752", "MEAN_MOTION": 14.58350554, "ECCENTRICITY": 0.0015358, "INCLINATION": 74.0291, "RA_OF_ASC_NODE": 197.3519, "ARG_OF_PERICENTER": 268.0064, "MEAN_ANOMALY": 91.9342, "EPHEMERIS_TYPE": 0, "CLASSIFICATION_TYPE": "U", "NORAD_CAT_ID": 36540, "ELEMENT_SET_NO": 999, "REV_AT_EPOCH": 85881, "BSTAR": 0.0020391081, "MEAN_MOTION_DOT": 9.439e-05, "MEAN_MOTION_DDOT": 0}, "tle": {"line1": "1 36540U 93036BDA 25337.89799068  .00009439  00000+0  20391-2 0  9996", "line2": "2 36540  74.0291 197.3519 0015358 268.0064  91.9342 14.58350554858814"}}, "geometry": {"type": "Point", "coordinates": [9.643856913988392, 22.27633658288531]}}, {"type": "Feature", "properties": {"norad_id": 36550, "name": "COSMOS 2251 DEB", "group": "cosmos-2251-debris", "lat": -31.04724396898383, "lon": 37.72961387834206, "alt_km": 768.7344531617146, "timestamp": "2025-12-04T09:47:37.917107+00:00", "meta": {"OBJECT_NAME": "COSMOS 2251 DEB", "OBJECT_ID": "1993-036BDL", "EPOCH": "2025-12-02T08:00:24.910560", "MEAN_MOTION": 14.27149643, "ECCENTRICITY": 0.00787603, "INCLINATION": 74.0451, "RA_OF_ASC_NODE": 211.5637, "ARG_OF_PERICENTER": 264.4889, "MEAN_ANOMALY": 94.7272, "EPHEMERIS_TYPE": 0, "CLASSIFICATION_TYPE": "U", "NORAD_CAT_ID": 36550, "ELEMENT_SET_NO": 999, "REV_AT_EPOCH": 84447, "BSTAR": 0.00078484278, "MEAN_MOTION_DOT": 1.953e-05, "MEAN_MOTION_DDOT": 0}, "tle": {"line1": "1 36550U 93036BDL 25336.33362165  .00001953  00000+0  78484-3 0  9999", "line2": "2 36550  74.0451 211.5637 0078760 264.4889  94.7272 14.27149643844475"}}, "geometry": {"type": "Point", "coordinates": [37.72961387834206, -31.04724396898383]}}, {"type": "Feature", "properties": {"norad_id": 36551, "name": "COSMOS 2251 DEB", "group": "cosmos-2251-debris", "lat": 3.643197256850348, "lon": -149.1948374234015, "alt_km": 596.6069294940053, "timestamp": "2025-12-04T09:47:37.917117+00:00", "meta": {"OBJECT_NAME": "COSMOS 2251 DEB", "OBJECT_ID": "1993-036BDM", "EPOCH": "2025-12-01T04:16:57.552096", "MEAN_MOTION": 15.01965558, "ECCENTRICITY": 0.00505004, "INCLINATION": 73.8879, "RA_OF_ASC_NODE": 38.501, "ARG_OF_PERICENTER": 349.5182, "MEAN_ANOMALY": 10.4947, "EPHEMERIS_TYPE": 0, "CLASSIFICATION_TYPE": "U", "NORAD_CAT_ID": 36551, "ELEMENT_SET_NO": 999, "REV_AT_EPOCH": 66758, "BSTAR": 0.0014137691, "MEAN_MOTION_DOT": 0.00019039, "MEAN_MOTION_DDOT": 0}, "tle": {"line1": "1 36551U 93036BDM 25335.17844389  .00019039  00000+0  14138-2 0  9993", "line2": "2 36551  73.8879  38.5010 0050500 349.5182  10.4947 15.01965558667585"}}, "geometry": {"type": "Point", "coordinates": [-149.1948374234015, 3.643197256850348]}}, {"type": "Feature", "properties": {"norad_id": 36557, "name": "COSMOS 2251 DEB", "group": "cosmos-2251-debris", "lat": 9.144485390320446, "lon": -39.98481393196248, "alt_km": 646.0611007908274, "timestamp": "2025-12-04T09:47:37.917128+00:00", "meta": {"OBJECT_NAME": "COSMOS 2251 DEB", "OBJECT_ID": "1993-036BDT", "EPOCH": "2025-11-29T20:08:28.959648", "MEAN_MOTION": 14.77361907, "ECCENTRICITY": 0.00205231, "INCLINATION": 73.9794, "RA_OF_ASC_NODE": 151.6562, "ARG_OF_PERICENTER": 302.0455, "MEAN_ANOMALY": 57.8725, "EPHEMERIS_TYPE": 0, "CLASSIFICATION_TYPE": "U", "NORAD_CAT_ID": 36557, "ELEMENT_SET_NO": 999, "REV_AT_EPOCH": 33706, "BSTAR": 0.0024129009, "MEAN_MOTION_DOT": 0.00017224, "MEAN_MOTION_DDOT": 0}, "tle": {"line1": "1 36557U 93036BDT 25333.83922407  .00017224  00000+0  24129-2 0  9993", "line2": "2 36557  73.9794 151.6562 0020523 302.0455  57.8725 14.77361907337062"}}, "geometry": {"type": "Point", "coordinates": [-39.98481393196248, 9.144485390320446]}}, {"type": "Feature", "properties": {"norad_id": 36558, "name": "COSMOS 2251 DEB", "group": "cosmos-2251-debris", "lat": 62.86107283322042, "lon": -155.75066034189416, "alt_km": 711.2986728597734, "timestamp": "2025-12-04T09:47:37.917137+00:00", "meta": {"OBJECT_NAME": "COSMOS 2251 DEB", "OBJECT_ID": "1993-036BDU", "EPOCH": "2025-11-30T14:44:20.411232", "MEAN_MOTION": 14.55224096, "ECCENTRICITY": 0.0013208, "INCLINATION": 74.0432, "RA_OF_ASC_NODE": 177.4971, "ARG_OF_PERICENTER": 265.9101, "MEAN_ANOMALY": 94.0552, "EPHEMERIS_TYPE": 0, "CLASSIFICATION_TYPE": "U", "NORAD_CAT_ID": 36558, "ELEMENT_SET_NO": 999, "REV_AT_EPOCH": 85092, "BSTAR": 0.00073526, "MEAN_MOTION_DOT": 3.158e-05, "MEAN_MOTION_DDOT": 0}, "tle": {"line1": "1 36558U 93036BDU 25334.61412513  .00003158  00000+0  73526-3 0  9990", "line2": "2 36558  74.0432 177.4971 0013208 265.9101  94.0552 14.55224096850920"}}, "geometry": {"type": "Point", "coordinates": [-155.75066034189416, 62.86107283322042]}}, {"type": "Feature", "properties": {"norad_id": 36559, "name": "COSMOS 2251 DEB", "group": "cosmos-2251-debris", "lat": -72.91625207087748, "lon": -88.18850846318905, "alt_km": 1090.1955249275507, "timestamp": "2025-12-04T09:47:37.917147+00:00", "meta": {"OBJECT_NAME": "COSMOS 2251 DEB", "OBJECT_ID": "1993-036BDV", "EPOCH": "2025-12-03T03:17:00.548160", "MEAN_MOTION": 13.95062123, "ECCENTRICITY": 0.02603187, "INCLINATION": 74.1298, "RA_OF_ASC_NODE": 26.2197, "ARG_OF_PERICENTER": 61.9669, "MEAN_ANOMALY": 300.7529, "EPHEMERIS_TYPE": 0, "CLASSIFICATION_TYPE": "U", "NORAD_CAT_ID": 36559, "ELEMENT_SET_NO": 999, "REV_AT_EPOCH": 80960, "BSTAR": 0.0032733881, "MEAN_MOTION_DOT": 5.835e-05, "MEAN_MOTION_DDOT": 0}, "tle": {"line1": "1 36559U 93036BDV 25337.13681190  .00005835  00000+0  32734-2 0  9999", "line2": "2 36559  74.1298  26.2197 0260318  61.9669 300.7529 13.95062123809606"}}, "geometry": {"type": "Point", "coordinates": [-88.18850846318905, -72.91625207087748]}}, {"type": "Feature", "properties": {"norad_id": 36614, "name": "COSMOS 2251 DEB", "group": "cosmos-2251-debris", "lat": -57.49075189798308, "lon": 163.78289458561767, "alt_km": 690.3528122013649, "timestamp": "2025-12-04T09:47:37.917158+00:00", "meta": {"OBJECT_NAME": "COSMOS 2251 DEB", "OBJECT_ID": "1993-036BEC", "EPOCH": "2025-12-03T20:55:07.059072", "MEAN_MOTION": 14.60089968, "ECCENTRICITY": 0.0016551, "INCLINATION": 74.0216, "RA_OF_ASC_NODE": 191.525, "ARG_OF_PERICENTER": 261.9036, "MEAN_ANOMALY": 98.0252, "EPHEMERIS_TYPE": 0, "CLASSIFICATION_TYPE": "U", "NORAD_CAT_ID": 36614, "ELEMENT_SET_NO": 999, "REV_AT_EPOCH": 65483, "BSTAR": 0.0023551, "MEAN_MOTION_DOT": 0.00011335, "MEAN_MOTION_DDOT": 0}, "tle": {"line1": "1 36614U 93036BEC 25337.87160948  .00011335  00000+0  23551-2 0  9994", "line2": "2 36614  74.0216 191.5250 0016551 261.9036  98.0252 14.60089968654833"}}, "geometry": {"type": "Point", "coordinates": [163.78289458561767, -57.49075189798308]}}, {"type": "Feature", "properties": {"norad_id": 36622, "name": "COSMOS 2251 DEB", "group": "cosmos-2251-debris", "lat": -60.24689799520562, "lon": 11.915075997252412, "alt_km": 620.1685611200637, "timestamp": "2025-12-04T09:47:37.917168+00:00", "meta": {"OBJECT_NAME": "COSMOS 2251 DEB", "OBJECT_ID": "1993-036BEL", "EPOCH": "2025-12-03T05:01:52.297248", "MEAN_MOTION": 14.76062801, "ECCENTRICITY": 0.0068651, "INCLINATION": 74.0123, "RA_OF_ASC_NODE": 164.1599, "ARG_OF_PERICENTER": 301.4502, "MEAN_ANOMALY": 57.9972, "EPHEMERIS_TYPE": 0, "CLASSIFICATION_TYPE": "U", "NORAD_CAT_ID": 36622, "ELEMENT_SET_NO": 999, "REV_AT_EPOCH": 66609, "BSTAR": 0.00094597, "MEAN_MOTION_DOT": 6.75e-05, "MEAN_MOTION_DDOT": 0}, "tle": {"line1": "1 36622U 93036BEL 25337.20963307  .00006750  00000+0  94597-3 0  9994", "line2": "2 36622  74.0123 164.1599 0068651 301.4502  57.9972 14.76062801666095"}}, "geometry": {"type": "Point", "coordinates": [11.915075997252412, -60.24689799520562]}}]}